CENTAURI-1              
1 43809U 18099BD  26191.10261092  .00003652  00000+0  19005-3 0  9994
2 43809  97.4212 242.3314 0012619 244.5950 115.3977 15.16592790415972
CENTAURI-6              
1 59451U 24066K   26191.21958063  .00002797  00000+0  20550-3 0  9994
2 59451  45.6055 134.1929 0001453 242.1395 117.9342 15.06006491123598
CENTAURI-7              
1 62708U 25009DD  26191.17499692  .00002952  00000+0  25526-3 0  9995
2 62708  97.7094 271.1580 0002848 111.3434 248.8093 14.97952500 80907
CENTAURI-8              
1 62714U 25009DK  26191.20351803  .00001542  00000+0  13582-3 0  9990
2 62714  97.7043 271.0111 0002704  82.0405 278.1125 14.97911723 80926
