{"fetched_at":"2026-07-10T18:08:06.102Z","source":"https://celestrak.org/NORAD/elements/gp.php?NAME=CENTAURI&FORMAT=JSON","constellation":"myriota","records":[{"OBJECT_NAME":"CENTAURI-1","OBJECT_ID":"2018-099BD","EPOCH":"2026-07-10T02:27:45.583488","CLASSIFICATION_TYPE":"U","MEAN_MOTION":15.1659279,"ECCENTRICITY":0.00126199,"INCLINATION":97.4212,"RA_OF_ASC_NODE":242.3314,"ARG_OF_PERICENTER":244.595,"MEAN_ANOMALY":115.3977,"EPHEMERIS_TYPE":0,"NORAD_CAT_ID":43809,"ELEMENT_SET_NO":999,"REV_AT_EPOCH":41597,"BSTAR":0.00019005394,"MEAN_MOTION_DOT":0.00003652,"MEAN_MOTION_DDOT":0},{"OBJECT_NAME":"CENTAURI-6","OBJECT_ID":"2024-066K","EPOCH":"2026-07-10T05:16:11.766432","CLASSIFICATION_TYPE":"U","MEAN_MOTION":15.06006491,"ECCENTRICITY":0.00014535,"INCLINATION":45.6055,"RA_OF_ASC_NODE":134.1929,"ARG_OF_PERICENTER":242.1395,"MEAN_ANOMALY":117.9342,"EPHEMERIS_TYPE":0,"NORAD_CAT_ID":59451,"ELEMENT_SET_NO":999,"REV_AT_EPOCH":12359,"BSTAR":0.00020549854,"MEAN_MOTION_DOT":0.00002797,"MEAN_MOTION_DDOT":0},{"OBJECT_NAME":"CENTAURI-7","OBJECT_ID":"2025-009DD","EPOCH":"2026-07-10T04:11:59.733888","CLASSIFICATION_TYPE":"U","MEAN_MOTION":14.979525,"ECCENTRICITY":0.00028481,"INCLINATION":97.7094,"RA_OF_ASC_NODE":271.158,"ARG_OF_PERICENTER":111.3434,"MEAN_ANOMALY":248.8093,"EPHEMERIS_TYPE":0,"NORAD_CAT_ID":62708,"ELEMENT_SET_NO":999,"REV_AT_EPOCH":8090,"BSTAR":0.00025525675,"MEAN_MOTION_DOT":0.00002952,"MEAN_MOTION_DDOT":0},{"OBJECT_NAME":"CENTAURI-8","OBJECT_ID":"2025-009DK","EPOCH":"2026-07-10T04:53:03.957792","CLASSIFICATION_TYPE":"U","MEAN_MOTION":14.97911723,"ECCENTRICITY":0.00027047,"INCLINATION":97.7043,"RA_OF_ASC_NODE":271.0111,"ARG_OF_PERICENTER":82.0405,"MEAN_ANOMALY":278.1125,"EPHEMERIS_TYPE":0,"NORAD_CAT_ID":62714,"ELEMENT_SET_NO":999,"REV_AT_EPOCH":8092,"BSTAR":0.00013582465,"MEAN_MOTION_DOT":0.00001542,"MEAN_MOTION_DDOT":0}]}
